[{"OBJECT_NAME":"STARLINK-35833","OBJECT_ID":"2025-265AC","EPOCH":"2026-03-09T22:08:20.691744","MEAN_MOTION":15.27594133,"ECCENTRICITY":0.00010771,"INCLINATION":42.9946,"RA_OF_ASC_NODE":277.0887,"ARG_OF_PERICENTER":296.0091,"MEAN_ANOMALY":64.065,"EPHEMERIS_TYPE":0,"CLASSIFICATION_TYPE":"U","NORAD_CAT_ID":66542,"ELEMENT_SET_NO":999,"REV_AT_EPOCH":1714,"BSTAR":0.00087240951,"MEAN_MOTION_DOT":0.00023833,"MEAN_MOTION_DDOT":0},{"OBJECT_NAME":"DELTA 2 R\/B","OBJECT_ID":"1990-034B","EPOCH":"2026-03-09T11:50:38.100192","MEAN_MOTION":14.22012271,"ECCENTRICITY":0.04686634,"INCLINATION":22.7441,"RA_OF_ASC_NODE":150.4279,"ARG_OF_PERICENTER":275.616,"MEAN_ANOMALY":79.1052,"EPHEMERIS_TYPE":0,"CLASSIFICATION_TYPE":"U","NORAD_CAT_ID":20571,"ELEMENT_SET_NO":999,"REV_AT_EPOCH":84430,"BSTAR":0.00052085196,"MEAN_MOTION_DOT":4.065e-5,"MEAN_MOTION_DDOT":0}]
